SL-3 R/B                
1 19046U 88032B   22354.40455578  .00004047  00000+0  28956-3 0  9992
2 19046  97.4017 345.3284 0035296 326.5918  33.3081 15.04477801874855
SL-16 R/B               
1 19120U 88039B   22353.81598541  .00000022  00000+0  33468-4 0  9998
2 19120  71.0152  34.2430 0022836 337.7244  22.2887 14.19274644791523
COSMOS 1953             
1 19210U 88050A   22353.96655590  .00003908  00000+0  24970-3 0  9998
2 19210  82.5155 240.1874 0014342 241.1283 118.8507 15.08296824880643
SL-8 R/B                
1 19257U 88053B   22354.46648201  .00000268  00000+0  97723-4 0  9992
2 19257  74.0482 116.4584 0021221 230.9568 194.7111 14.37685905807918
COSMOS 1975             
1 19573U 88093A   22353.81124070  .00002943  00000+0  19334-3 0  9991
2 19573  82.5184 196.5951 0011579 277.7252  82.2661 15.07219897862376
SL-14 R/B               
1 19574U 88093B   22353.71235681  .00000466  00000+0  53508-4 0  9992
2 19574  82.5328  64.0752 0020579 327.1000 149.3541 14.83627924826555
SL-16 R/B               
1 19650U 88102B   22354.06216494  .00000291  00000+0  17178-3 0  9996
2 19650  71.0000 104.5096 0014503 351.6297   8.4582 14.15853885760752
INTERCOSMOS 24          
1 20261U 89080A   22354.13790430  .00001260  00000+0  36873-3 0  9997
2 20261  82.6012 147.4972 1200838 134.4139 236.1837 12.56646626518562
SL-14 R/B               
1 20262U 89080C   22354.00962987  .00000322  00000+0  94595-4 0  9996
2 20262  82.5931 207.4125 1236028 349.4318   8.2800 12.49145128512853
DELTA 2 R/B(1)          
1 20303U 89085B   22353.67804522  .00031007  00000+0  64426-3 0  9992
2 20303  35.6380 345.1106 0065446  87.5682 273.2541 15.42372098808995
DELTA 1 R/B             
1 20323U 89089B   22353.75453273  .00000404  00000+0  11311-3 0  9992
2 20323  97.0645   5.5122 0070245 230.0931 129.4078 14.48630315725363
ARIANE 40 R/B           
1 20443U 90005H   22353.74721964  .00000274  00000+0  10424-3 0  9998
2 20443  98.4638  59.0857 0011323 129.0637 231.1559 14.38327555723679
DELTA 2 R/B(1)          
1 20453U 90008B   22353.81668661  .00012794  00000+0  64514-3 0  9993
2 20453  35.6219 241.4480 0255966  50.3686 311.9325 14.92270411747582
COSMOS 2058             
1 20465U 90010A   22353.83337937  .00002000  00000+0  16080-3 0  9994
2 20465  82.4886 111.8988 0014887 358.4155   1.7018 14.99439376786519
SL-14 R/B               
1 20466U 90010B   22354.07862938  .00000432  00000+0  51763-4 0  9991
2 20466  82.5032 289.7644 0019647 205.3640 154.6612 14.81664570775351
SL-14 R/B               
1 20511U 90018B   22354.44361832  .00000438  00000+0  54340-4 0  9998
2 20511  82.5235 239.9027 0017356 358.6612 174.3496 14.80309510769705
HST                     
1 20580U 90037B   22353.78631414  .00003803  00000+0  20861-3 0  9996
2 20580  28.4715  20.0539 0002325 231.4505 291.6570 15.11441182594540
SL-16 R/B               
1 20625U 90046B   22353.75725311  .00000174  00000+0  11493-3 0  9992
2 20625  70.9985 246.9516 0016319 288.2243  71.7103 14.14711702682066
COSMOS 2084             
1 20663U 90055A   22353.74494444  .00002612  00000+0  22562-3 0  9991
2 20663  62.7932 349.7764 0130496  68.4918 293.0030 14.93583910759963
SL-6 R/B(2)             
1 20666U 90055D   22353.76427853  .00002313  00000+0  19937-3 0  9996
2 20666  62.7845 263.7130 0132363  90.4130 271.2133 14.93877189761933
SL-8 R/B                
1 20775U 90078B   22353.82919950  .00013247  00000+0  61379-3 0  9998
2 20775  82.9232 188.3654 0537200 226.5564 128.9750 14.43114935637228
SL-8 R/B                
1 21088U 91006B   22354.33494373  .00000136  00000+0  12107-3 0  9990
2 21088  82.9418 324.2353 0024018  87.0083  22.0200 13.77230948602543
OKEAN-3                 
1 21397U 91039A   22354.36312104  .00002000  00000+0  18356-3 0  9997
2 21397  82.5213  25.5496 0016795 347.7344  12.3466 14.94265819710016
COSMOS 2151             
1 21422U 91042A   22354.46150928  .00001652  00000+0  15595-3 0  9999
2 21422  82.5000 130.4765 0015010  54.4762 305.7855 14.93072561708588
SL-14 R/B               
1 21423U 91042B   22353.97075676  .00000362  00000+0  44601-4 0  9999
2 21423  82.4944 241.1252 0018512 135.9686 224.3005 14.80053823700105
ERS-1                   
1 21574U 91050A   22354.20771562  .00000240  00000+0  93845-4 0  9998
2 21574  98.7221 325.5334 0033899  87.1581 273.3484 14.37979924646694
ARIANE 40 R/B           
1 21610U 91050F   22353.78253417  .00000321  00000+0  11296-3 0  9994
2 21610  98.3619  59.4995 0003797  45.0923 315.0574 14.41170701649525
INTERCOSMOS 25          
1 21819U 91086A   22354.12468975  .00000780  00000+0  14837-3 0  9993
2 21819  82.6096 297.3970 1513181 119.5635 256.4808 12.06235354354636
SL-8 R/B                
1 21876U 92008B   22353.72763823  .00000084  00000+0  71054-4 0  9998
2 21876  82.9279  62.1115 0035028 176.4079 333.3900 13.75719904547712
SL-8 R/B                
1 21938U 92020B   22353.83671135  .00000024  00000+0  95194-5 0  9993
2 21938  82.9299 306.9437 0028856 342.2722  78.4021 13.75315271539797
COSMOS 2219             
1 22219U 92076A   22353.62620472 -.00000104  00000+0 -30278-4 0  9994
2 22219  71.0615 315.8440 0019059 205.6193 154.3987 14.13722969552141
SL-16 R/B               
1 22220U 92076B   22354.16404985 -.00000150  00000+0 -51131-4 0  9997
2 22220  70.9991 143.8993 0010485  85.9716  86.3912 14.16520618555677
COSMOS 2221             
1 22236U 92080A   22353.84820241  .00001571  00000+0  16448-3 0  9997
2 22236  82.5069 318.3031 0016964 156.2618 203.9387 14.88894598626461
SL-16 R/B               
1 22285U 92093B   22353.58260437  .00000192  00000+0  12356-3 0  9993
2 22285  71.0213 312.5797 0006371 289.9379  70.1058 14.15110186546759
COSMOS 2228             
1 22286U 92094A   22354.06026095  .00001689  00000+0  17576-3 0  9990
2 22286  82.5202 275.4148 0019002 279.8887  80.0186 14.89180557621711
SL-16 R/B               
1 22566U 93016B   22353.73429615  .00000388  00000+0  22461-3 0  9998
2 22566  71.0062 164.4388 0012003 305.7889  54.2117 14.15023192535808
COSMOS 2242             
1 22626U 93024A   22354.13461201  .00001688  00000+0  17654-3 0  9998
2 22626  82.5211 303.8743 0016853 280.1663  79.7654 14.88991260605351
SL-16 R/B               
1 22803U 93059B   22353.87691409 -.00000113  00000+0 -32454-4 0  9998
2 22803  70.9905 330.0085 0018316 209.1169 150.8935 14.16892658512967
ARIANE 40 R/B           
1 22830U 93061H   22354.43322684  .00000236  00000+0  10521-3 0  9994
2 22830  98.6421  56.6263 0011528 148.6874 211.4998 14.31632870526125
COSMOS 2278             
1 23087U 94023A   22353.75964760 -.00000149  00000+0 -53854-4 0  9991
2 23087  71.0526 114.3993 0008121   8.7382 351.3880 14.13895978478566
SL-16 R/B               
1 23088U 94023B   22353.49873190 -.00000156  00000+0 -56199-4 0  9992
2 23088  70.9996  20.4426 0005736 278.1771  81.8700 14.14727102479996
SL-16 R/B               
1 23343U 94074B   22354.13576736  .00000482  00000+0  75229-4 0  9995
2 23343  97.8683  42.8163 0008209  79.0570 339.4152 14.77175147513784
SL-16 R/B               
1 23405U 94077B   22353.29976943 -.00000234  00000+0 -95863-4 0  9990
2 23405  70.9829 306.8019 0002632 209.4809 150.6166 14.15275735449779
ERS-2                   
1 23560U 95021A   22354.35886346  .00015302  00000+0  53496-3 0  9992
2 23560  98.5058 285.7349 0001513 297.7506  62.3577 15.29669258481733
ARIANE 40+ R/B          
1 23561U 95021B   22353.75624513  .00000296  00000+0  11190-3 0  9993
2 23561  98.6007  51.5769 0007787  60.5805  49.6802 14.38249628450123
SL-16 R/B               
1 23705U 95058B   22354.09489469 -.00000205  00000+0 -81139-4 0  9993
2 23705  71.0218 127.7580 0010163 115.8970 244.3202 14.15196465401813
SL-16 R/B               
1 24298U 96051B   22354.35908250  .00000147  00000+0  10588-3 0  9990
2 24298  70.8245 138.5351 0012535  75.4124 284.8385 14.12464683355941
ORBVIEW 2 (SEASTAR)     
1 24883U 97037A   22354.34468015  .00000360  00000+0  14541-3 0  9994
2 24883  98.7024 118.5647 0001309 290.9793  69.1251 14.33848336340207
SL-16 R/B               
1 25400U 98043G   22354.56818018  .00000050  00000+0  39563-4 0  9992
2 25400  98.6910 288.7830 0009789 181.4779 178.6373 14.25548455271763
SL-16 R/B               
1 25407U 98045B   22354.10898432 -.00000233  00000+0 -94354-4 0  9993
2 25407  71.0108 133.1448 0007223 358.5410   1.5691 14.15881853260959
ISS (ZARYA)             
1 25544U 98067A   22354.64418368  .00012110  00000+0  21916-3 0  9992
2 25544  51.6432 132.9045 0003415 177.7367 187.8174 15.50086952374100
CZ-4B R/B               
1 25732U 99025C   22353.86428309  .00000057  00000+0  49452-4 0  9998
2 25732  98.8310  34.4238 0038269 116.9150  56.0653 14.17763321221527
OKEAN-O                 
1 25860U 99039A   22354.07503068  .00000545  00000+0  84620-4 0  9993
2 25860  98.1161  35.3180 0001477 112.4924 247.6442 14.77123716260748
SL-16 R/B               
1 25861U 99039B   22354.06408930  .00000512  00000+0  76541-4 0  9992
2 25861  98.1613  23.9796 0016841  95.6017 264.7115 14.78994311263066
DELTA 2 R/B             
1 25876U 99041E   22354.15953442  .00000677  00000+0  15486-3 0  9996
2 25876  51.7641 293.5675 0528591 136.0835 228.3390 14.05432679197361
HELIOS 1B               
1 25977U 99064A   22354.03397630  .00000704  00000+0  93736-4 0  9997
2 25977  98.3073 195.6657 0000153  20.1130 340.0088 14.82989085242080
TERRA                   
1 25994U 99068A   22354.49849501  .00000511  00000+0  11857-3 0  9998
2 25994  98.1184  62.1369 0000319 250.1653 239.5841 14.58945786223729
SL-16 R/B               
1 26070U 00006B   22353.60816104 -.00000017  00000+0  15917-4 0  9997
2 26070  71.0035  50.1077 0016360 180.5612 179.5496 14.15512442182115
TITAN 4B R/B            
1 26474U 00047B   22353.63346240  .00002645  00000+0  22889-3 0  9995
2 26474  67.9951  74.8227 0059438 271.0639  88.3695 14.97506142216163
ENVISAT                 
1 27386U 02009A   22354.50435785  .00000235  00000+0  90996-4 0  9996
2 27386  98.2073 327.1097 0001254  83.4069  26.9227 14.38200733 90275
